[{"OBJECT_NAME":"GEESAT-6 05","OBJECT_ID":"2025-214F","EPOCH":"2026-03-09T22:35:26.117664","MEAN_MOTION":14.83005779,"ECCENTRICITY":0.0012614,"INCLINATION":49.9792,"RA_OF_ASC_NODE":48.1153,"ARG_OF_PERICENTER":192.2595,"MEAN_ANOMALY":167.8037,"EPHEMERIS_TYPE":0,"CLASSIFICATION_TYPE":"U","NORAD_CAT_ID":65717,"ELEMENT_SET_NO":999,"REV_AT_EPOCH":2477,"BSTAR":0.00036224871,"MEAN_MOTION_DOT":2.753e-5,"MEAN_MOTION_DDOT":0},{"OBJECT_NAME":"TITAN 4B DEB","OBJECT_ID":"2000-047E","EPOCH":"2026-03-09T14:16:43.154688","MEAN_MOTION":14.95842861,"ECCENTRICITY":0.0051888,"INCLINATION":67.9936,"RA_OF_ASC_NODE":132.6415,"ARG_OF_PERICENTER":76.3882,"MEAN_ANOMALY":356.6211,"EPHEMERIS_TYPE":0,"CLASSIFICATION_TYPE":"U","NORAD_CAT_ID":40528,"ELEMENT_SET_NO":999,"REV_AT_EPOCH":59773,"BSTAR":6.4855e-5,"MEAN_MOTION_DOT":6.21e-6,"MEAN_MOTION_DDOT":0}]
